{"type": "FeatureCollection", "features": [ {"type": "Feature", "properties": {"norad_id": 29853, "name": "FENGYUN 1C DEB", "group": "fengyun-1c-debris", "lat": -0.2129765625328021, "lon": -70.72872940339981, "alt_km": 826.6184623772097, "timestamp": "2025-12-13T18:50:04.702315+00:00", "meta": {"OBJECT_NAME": "FENGYUN 1C DEB", "OBJECT_ID": "1999-025EX", "EPOCH": "2025-12-13T07:37:28.782336", "MEAN_MOTION": 13.93799673, "ECCENTRICITY": 0.01615998, "INCLINATION": 98.4573, "RA_OF_ASC_NODE": 108.8753, "ARG_OF_PERICENTER": 220.9659, "MEAN_ANOMALY": 137.9272, "EPHEMERIS_TYPE": 0, "CLASSIFICATION_TYPE": "U", "NORAD_CAT_ID": 29853, "ELEMENT_SET_NO": 999, "REV_AT_EPOCH": 95677, "BSTAR": 0.0021553442, "MEAN_MOTION_DOT": 3.125e-05, "MEAN_MOTION_DDOT": 0}, "tle": {"line1": "1 29853U 99025EX  25347.31769424  .00003125  00000+0  21553-2 0  9997", "line2": "2 29853  98.4573 108.8753 0161599 220.9659 137.9272 13.93799673956773"}}, "geometry": {"type": "Point", "coordinates": [-70.72872940339981, -0.2129765625328021]}}, {"type": "Feature", "properties": {"norad_id": 29854, "name": "FENGYUN 1C DEB", "group": "fengyun-1c-debris", "lat": 32.416539661109375, "lon": 143.1384922467448, "alt_km": 845.6325849065015, "timestamp": "2025-12-13T18:50:04.702326+00:00", "meta": {"OBJECT_NAME": "FENGYUN 1C DEB", "OBJECT_ID": "1999-025EY", "EPOCH": "2025-12-12T22:35:54.652992", "MEAN_MOTION": 13.83341505, "ECCENTRICITY": 0.01473191, "INCLINATION": 98.9273, "RA_OF_ASC_NODE": 148.0666, "ARG_OF_PERICENTER": 50.2782, "MEAN_ANOMALY": 106.3618, "EPHEMERIS_TYPE": 0, "CLASSIFICATION_TYPE": "U", "NORAD_CAT_ID": 29854, "ELEMENT_SET_NO": 999, "REV_AT_EPOCH": 95346, "BSTAR": 0.00037184332, "MEAN_MOTION_DOT": 4.04e-06, "MEAN_MOTION_DDOT": 0}, "tle": {"line1": "1 29854U 99025EY  25346.94160478  .00000404  00000+0  37184-3 0  9995", "line2": "2 29854  98.9273 148.0666 0147319  50.2782 106.3618 13.83341505953463"}}, "geometry": {"type": "Point", "coordinates": [143.1384922467448, 32.416539661109375]}}, {"type": "Feature", "properties": {"norad_id": 29855, "name": "FENGYUN 1C DEB", "group": "fengyun-1c-debris", "lat": -80.35031362591823, "lon": 51.60120957017471, "alt_km": 994.4911247205946, "timestamp": "2025-12-13T18:50:04.702337+00:00", "meta": {"OBJECT_NAME": "FENGYUN 1C DEB", "OBJECT_ID": "1999-025EZ", "EPOCH": "2025-12-12T19:32:59.980704", "MEAN_MOTION": 14.0158307, "ECCENTRICITY": 0.01840306, "INCLINATION": 98.1804, "RA_OF_ASC_NODE": 288.5085, "ARG_OF_PERICENTER": 45.9878, "MEAN_ANOMALY": 7.7167, "EPHEMERIS_TYPE": 0, "CLASSIFICATION_TYPE": "U", "NORAD_CAT_ID": 29855, "ELEMENT_SET_NO": 999, "REV_AT_EPOCH": 95713, "BSTAR": 0.0034761305, "MEAN_MOTION_DOT": 6.067e-05, "MEAN_MOTION_DDOT": 0}, "tle": {"line1": "1 29855U 99025EZ  25346.81458311  .00006067  00000+0  34761-2 0  9996", "line2": "2 29855  98.1804 288.5085 0184030  45.9878   7.7167 14.01583070957136"}}, "geometry": {"type": "Point", "coordinates": [51.60120957017471, -80.35031362591823]}}, {"type": "Feature", "properties": {"norad_id": 29856, "name": "FENGYUN 1C DEB", "group": "fengyun-1c-debris", "lat": -15.79804989665587, "lon": 84.25383451997828, "alt_km": 613.5168946457015, "timestamp": "2025-12-13T18:50:04.702347+00:00", "meta": {"OBJECT_NAME": "FENGYUN 1C DEB", "OBJECT_ID": "1999-025FA", "EPOCH": "2025-12-13T05:53:30.843168", "MEAN_MOTION": 14.47773241, "ECCENTRICITY": 0.0262236, "INCLINATION": 98.6883, "RA_OF_ASC_NODE": 81.2196, "ARG_OF_PERICENTER": 296.349, "MEAN_ANOMALY": 116.4122, "EPHEMERIS_TYPE": 0, "CLASSIFICATION_TYPE": "U", "NORAD_CAT_ID": 29856, "ELEMENT_SET_NO": 999, "REV_AT_EPOCH": 96382, "BSTAR": 0.0041245077, "MEAN_MOTION_DOT": 0.00023565, "MEAN_MOTION_DDOT": 0}, "tle": {"line1": "1 29856U 99025FA  25347.24549587  .00023565  00000+0  41245-2 0  9998", "line2": "2 29856  98.6883  81.2196 0262236 296.3490 116.4122 14.47773241963820"}}, "geometry": {"type": "Point", "coordinates": [84.25383451997828, -15.79804989665587]}}, {"type": "Feature", "properties": {"norad_id": 29857, "name": "FENGYUN 1C DEB", "group": "fengyun-1c-debris", "lat": -73.4327907829938, "lon": 145.1329340337791, "alt_km": 848.9992449893825, "timestamp": "2025-12-13T18:50:04.702358+00:00", "meta": {"OBJECT_NAME": "FENGYUN 1C DEB", "OBJECT_ID": "1999-025FB", "EPOCH": "2025-12-13T00:12:29.307456", "MEAN_MOTION": 13.81881339, "ECCENTRICITY": 0.01928033, "INCLINATION": 98.4233, "RA_OF_ASC_NODE": 354.3121, "ARG_OF_PERICENTER": 293.6724, "MEAN_ANOMALY": 64.4304, "EPHEMERIS_TYPE": 0, "CLASSIFICATION_TYPE": "U", "NORAD_CAT_ID": 29857, "ELEMENT_SET_NO": 999, "REV_AT_EPOCH": 94779, "BSTAR": 0.0024178726, "MEAN_MOTION_DOT": 2.948e-05, "MEAN_MOTION_DDOT": 0}, "tle": {"line1": "1 29857U 99025FB  25347.00867254  .00002948  00000+0  24179-2 0  9996", "line2": "2 29857  98.4233 354.3121 0192803 293.6724  64.4304 13.81881339947799"}}, "geometry": {"type": "Point", "coordinates": [145.1329340337791, -73.4327907829938]}}, {"type": "Feature", "properties": {"norad_id": 29858, "name": "FENGYUN 1C DEB", "group": "fengyun-1c-debris", "lat": 33.64772479930806, "lon": -84.41701178847956, "alt_km": 951.8227034639212, "timestamp": "2025-12-13T18:50:04.702368+00:00", "meta": {"OBJECT_NAME": "FENGYUN 1C DEB", "OBJECT_ID": "1999-025FC", "EPOCH": "2025-12-13T06:12:26.513280", "MEAN_MOTION": 13.77789633, "ECCENTRICITY": 0.01983653, "INCLINATION": 99.2126, "RA_OF_ASC_NODE": 88.8712, "ARG_OF_PERICENTER": 62.9896, "MEAN_ANOMALY": 352.2455, "EPHEMERIS_TYPE": 0, "CLASSIFICATION_TYPE": "U", "NORAD_CAT_ID": 29858, "ELEMENT_SET_NO": 999, "REV_AT_EPOCH": 94561, "BSTAR": 0.0016301764, "MEAN_MOTION_DOT": 1.845e-05, "MEAN_MOTION_DDOT": 0}, "tle": {"line1": "1 29858U 99025FC  25347.25864020  .00001845  00000+0  16302-2 0  9996", "line2": "2 29858  99.2126  88.8712 0198365  62.9896 352.2455 13.77789633945614"}}, "geometry": {"type": "Point", "coordinates": [-84.41701178847956, 33.64772479930806]}}, {"type": "Feature", "properties": {"norad_id": 29859, "name": "FENGYUN 1C DEB", "group": "fengyun-1c-debris", "lat": 43.95472207509135, "lon": 174.24322319040942, "alt_km": 1191.2438644483464, "timestamp": "2025-12-13T18:50:04.702379+00:00", "meta": {"OBJECT_NAME": "FENGYUN 1C DEB", "OBJECT_ID": "1999-025FD", "EPOCH": "2025-12-13T02:52:36.888096", "MEAN_MOTION": 13.74037906, "ECCENTRICITY": 0.02949767, "INCLINATION": 98.3356, "RA_OF_ASC_NODE": 181.7883, "ARG_OF_PERICENTER": 211.9471, "MEAN_ANOMALY": 146.3496, "EPHEMERIS_TYPE": 0, "CLASSIFICATION_TYPE": "U", "NORAD_CAT_ID": 29859, "ELEMENT_SET_NO": 999, "REV_AT_EPOCH": 93985, "BSTAR": 0.0036392532, "MEAN_MOTION_DOT": 4.647e-05, "MEAN_MOTION_DDOT": 0}, "tle": {"line1": "1 29859U 99025FD  25347.11987139  .00004647  00000+0  36393-2 0  9994", "line2": "2 29859  98.3356 181.7883 0294976 211.9471 146.3496 13.74037906939854"}}, "geometry": {"type": "Point", "coordinates": [174.24322319040942, 43.95472207509135]}}, {"type": "Feature", "properties": {"norad_id": 29860, "name": "FENGYUN 1C DEB", "group": "fengyun-1c-debris", "lat": -18.307527676007343, "lon": -161.27460654173873, "alt_km": 1104.2868300714335, "timestamp": "2025-12-13T18:50:04.702390+00:00", "meta": {"OBJECT_NAME": "FENGYUN 1C DEB", "OBJECT_ID": "1999-025FE", "EPOCH": "2025-12-13T02:27:50.217120", "MEAN_MOTION": 13.77531306, "ECCENTRICITY": 0.02210166, "INCLINATION": 98.6179, "RA_OF_ASC_NODE": 20.982, "ARG_OF_PERICENTER": 342.2915, "MEAN_ANOMALY": 76.8593, "EPHEMERIS_TYPE": 0, "CLASSIFICATION_TYPE": "U", "NORAD_CAT_ID": 29860, "ELEMENT_SET_NO": 999, "REV_AT_EPOCH": 94144, "BSTAR": 0.003261501, "MEAN_MOTION_DOT": 3.853e-05, "MEAN_MOTION_DDOT": 0}, "tle": {"line1": "1 29860U 99025FE  25347.10266455  .00003853  00000+0  32615-2 0  9997", "line2": "2 29860  98.6179  20.9820 0221016 342.2915  76.8593 13.77531306941442"}}, "geometry": {"type": "Point", "coordinates": [-161.27460654173873, -18.307527676007343]}}, {"type": "Feature", "properties": {"norad_id": 29865, "name": "FENGYUN 1C DEB", "group": "fengyun-1c-debris", "lat": -30.30271822711962, "lon": -96.07532682218832, "alt_km": 706.8605772819974, "timestamp": "2025-12-13T18:50:04.702401+00:00", "meta": {"OBJECT_NAME": "FENGYUN 1C DEB", "OBJECT_ID": "1999-025FK", "EPOCH": "2025-12-13T08:09:51.664320", "MEAN_MOTION": 14.82611389, "ECCENTRICITY": 0.01163829, "INCLINATION": 98.9198, "RA_OF_ASC_NODE": 258.1628, "ARG_OF_PERICENTER": 139.4117, "MEAN_ANOMALY": 338.6658, "EPHEMERIS_TYPE": 0, "CLASSIFICATION_TYPE": "U", "NORAD_CAT_ID": 29865, "ELEMENT_SET_NO": 999, "REV_AT_EPOCH": 767, "BSTAR": 0.0011100957, "MEAN_MOTION_DOT": 0.00010004, "MEAN_MOTION_DDOT": 0}, "tle": {"line1": "1 29865U 99025FK  25347.34018130  .00010004  00000+0  11101-2 0  9996", "line2": "2 29865  98.9198 258.1628 0116382 139.4117 338.6658 14.82611389  7677"}}, "geometry": {"type": "Point", "coordinates": [-96.07532682218832, -30.30271822711962]}}, {"type": "Feature", "properties": {"norad_id": 29866, "name": "FENGYUN 1C DEB", "group": "fengyun-1c-debris", "lat": 29.703205505276866, "lon": -31.13116300100819, "alt_km": 815.2499331000226, "timestamp": "2025-12-13T18:50:04.702412+00:00", "meta": {"OBJECT_NAME": "FENGYUN 1C DEB", "OBJECT_ID": "1999-025FL", "EPOCH": "2025-12-12T23:18:18.275040", "MEAN_MOTION": 14.64215448, "ECCENTRICITY": 0.01943557, "INCLINATION": 98.0375, "RA_OF_ASC_NODE": 332.6976, "ARG_OF_PERICENTER": 214.132, "MEAN_ANOMALY": 209.1742, "EPHEMERIS_TYPE": 0, "CLASSIFICATION_TYPE": "U", "NORAD_CAT_ID": 29866, "ELEMENT_SET_NO": 999, "REV_AT_EPOCH": 330, "BSTAR": 0.0004462599, "MEAN_MOTION_DOT": 3.04e-05, "MEAN_MOTION_DDOT": 0}, "tle": {"line1": "1 29866U 99025FL  25346.97104485  .00003040  00000+0  44626-3 0  9995", "line2": "2 29866  98.0375 332.6976 0194355 214.1320 209.1742 14.64215448  3301"}}, "geometry": {"type": "Point", "coordinates": [-31.13116300100819, 29.703205505276866]}}]}